OSCAR 7 (AO-7)          
1 07530U 74089B   22240.57318073 -.00000048  00000+0 -15398-4 0  9990
2 07530 101.9111 220.6867 0011816 264.2761 219.6893 12.53656545186507
PHASE 3B (AO-10)        
1 14129U 83058B   22239.66272989 -.00000126  00000+0  00000+0 0  9996
2 14129  26.4994  84.6291 6019225 101.6164 327.9191  2.05871611266879
UOSAT 2 (UO-11)         
1 14781U 84021B   22240.47670488  .00000456  00000+0  61157-4 0  9998
2 14781  97.6231 224.6514 0009989  85.9331 274.3025 14.83767981 71723
LUSAT (LO-19)           
1 20442U 90005G   22240.50418723  .00000074  00000+0  43608-4 0  9991
2 20442  98.8005 206.4895 0011050 322.1745  37.8661 14.33080056703426
EYESAT A (AO-27)        
1 22825U 93061C   22240.08440710  .00000026  00000+0  28113-4 0  9998
2 22825  98.8831 272.6215 0008125 195.9467 164.1460 14.30187505508391
ITAMSAT (IO-26)         
1 22826U 93061D   22240.09026997  .00000035  00000+0  31059-4 0  9990
2 22826  98.8775 272.5023 0008909 182.6256 177.4880 14.30535352508653
RADIO ROSTO (RS-15)     
1 23439U 94085A   22240.59064991 -.00000039  00000+0  10000-3 0  9996
2 23439  64.8130  28.9360 0167845 260.1653  98.0283 11.27572047139624
JAS-2 (FO-29)           
1 24278U 96046B   22240.52827807 -.00000025  00000+0  76844-5 0  9998
2 24278  98.5154 254.3008 0351379  96.2825 267.8453 13.53118995285352
TECHSAT 1B (GO-32)      
1 25397U 98043D   22240.46167374  .00000009  00000+0  23705-4 0  9997
2 25397  98.8225 191.1377 0000193 217.1347 142.9818 14.23767216253674
ISS (ZARYA)             
1 25544U 98067A   22240.78320785  .00007111  00000+0  13267-3 0  9991
2 25544  51.6455 336.9349 0003392 173.4821 207.9175 15.49953724356440
PCSAT (NO-44)           
1 26931U 01043C   22240.45495764  .00000008  00000+0  34581-4 0  9995
2 26931  67.0492 232.5459 0006570 257.3713 102.6654 14.30726694 91700
SAUDISAT 1C (SO-50)     
1 27607U 02058C   22240.33557776  .00000224  00000+0  51281-4 0  9998
2 27607  64.5540  81.9163 0081026 280.6538  78.5447 14.76211972 58980
CUTE-1 (CO-55)          
1 27844U 03031E   22240.52499341  .00000128  00000+0  76839-4 0  9996
2 27844  98.6801 247.1269 0008657 251.5537 108.4700 14.22484389994113
CUBESAT XI-IV (CO-57)   
1 27848U 03031J   22240.51051978  .00000107  00000+0  68197-4 0  9994
2 27848  98.6846 247.6170 0008525 267.8814  92.1387 14.22037327993928
MOZHAYETS 4 (RS-22)     
1 27939U 03042A   22240.54121509  .00000269  00000+0  56279-4 0  9995
2 27939  98.2014  21.2824 0012366 346.2985  13.7902 14.67435904 11614
CUBESAT XI-V            
1 28895U 05043F   22240.33181920  .00000452  00000+0  94325-4 0  9998
2 28895  98.1158  10.6419 0015289 275.3378  84.6080 14.64440045897931
FALCONSAT-3             
1 30776U 07006E   22240.45143343  .00035201  00000+0  45095-3 0  9999
2 30776  35.4300 146.9459 0003997 313.5822  46.4579 15.58141340860809
CUTE-1.7+APD II (CO-65) 
1 32785U 08021C   22240.36879956  .00001007  00000+0  11049-3 0  9994
2 32785  97.6638 208.9711 0012652   3.5242 356.6063 14.89789884777192
DELFI-C3 (DO-64)        
1 32789U 08021G   22240.49967898  .00007996  00000+0  42911-3 0  9990
2 32789  97.3360 264.2507 0011916  78.9372 281.3200 15.15140190782830
SEEDS II (CO-66)        
1 32791U 08021J   22240.16380862  .00001515  00000+0  15104-3 0  9992
2 32791  97.6176 214.1907 0011460 317.3145  42.7183 14.92966993777970
YUBILEINY (RS-30)       
1 32953U 08025A   22240.49110751  .00000024  00000+0  10000-3 0  9994
2 32953  82.5049 139.1530 0019999 100.6727 259.6600 12.43112737647280
KKS-1 (KISEKI)          
1 33499U 09002H   22240.57307963  .00000370  00000+0  61387-4 0  9997
2 33499  98.2068 123.7809 0010395  85.0193 275.2202 14.76096168730881
SWISSCUBE               
1 35932U 09051B   22240.55777090  .00000344  00000+0  87416-4 0  9997
2 35932  98.5604  98.4838 0007329 176.9573 183.1670 14.56936281686590
BEESAT-1                
1 35933U 09051C   22240.51227482  .00000295  00000+0  76605-4 0  9992
2 35933  98.5542 100.0162 0005312 187.1733 172.9389 14.56943483686667
ITUPSAT1                
1 35935U 09051E   22240.09286471  .00000241  00000+0  65689-4 0  9991
2 35935  98.5644  99.6226 0007493 195.7768 164.3196 14.56046413686300
XIWANG-1 (HOPE-1)       
1 36122U 09072B   22240.55045054 -.00000024  00000+0  50282-4 0  9997
2 36122 100.1897 209.2828 0007502 170.1128 190.0134 13.16371244610295
JUGNU                   
1 37839U 11058B   22239.96989215  .00000353  00000+0  46144-4 0  9995
2 37839  19.9610 101.6809 0018908 225.3203 268.2074 14.12801029562264
SRMSAT                  
1 37841U 11058D   22240.49783672  .00000324  00000+0  32878-4 0  9994
2 37841  19.9707 179.4326 0011957  56.3793 101.4658 14.10767415561425
M-CUBED & EXP-1 PRIME   
1 37855U 11061F   22240.39398947  .00009881  00000+0  42435-3 0  9995
2 37855 101.7183  37.6408 0150775 206.7181 152.6210 15.13352225592113
STRAND-1                
1 39090U 13009E   22240.52051872  .00000098  00000+0  49077-4 0  9991
2 39090  98.4020  76.7675 0010140  60.4294 299.7901 14.35317757497735
SOMP                    
1 39134U 13015E   22240.29915183  .00010592  00000+0  36194-3 0  9990
2 39134  64.8610 185.7997 0035480 268.8580  90.8488 15.30115006517844
BEESAT-3                
1 39135U 13015F   22240.35679105  .00007509  00000+0  30123-3 0  9999
2 39135  64.8638 223.4482 0039318 274.2636  85.4001 15.25001603517078
BEESAT-2                
1 39136U 13015G   22240.38697107  .00006754  00000+0  28465-3 0  9992
2 39136  64.8722 231.9456 0021189 296.7326  63.1634 15.23943140516871
ZACUBE-1 (TSHEPISOSAT)  
1 39417U 13066B   22240.45454065  .00000824  00000+0  10601-3 0  9997
2 39417  97.6428 208.7335 0057833 166.9541 193.3185 14.82533434473795
GOMX-1                  
1 39430U 13066Q   22240.26551579  .00000354  00000+0  71694-4 0  9997
2 39430  97.8034 143.3509 0148692 177.9218 182.2628 14.60315986466774
CUBEBUG-2 (LO-74)       
1 39440U 13066AA  22240.46428685  .00000764  00000+0  11015-3 0  9996
2 39440  97.7313 195.0215 0076845 257.7387 101.5212 14.77201865470918
FUNCUBE-1 (AO-73)       
1 39444U 13066AE  22240.48528401  .00001027  00000+0  12720-3 0  9996
2 39444  97.6307 211.1791 0056998 154.6388 205.7644 14.83650941472206
UWE-3                   
1 39446U 13066AG  22240.36164766  .00000693  00000+0  95552-4 0  9998
2 39446  97.6915 201.3487 0067429 213.7837 145.9070 14.79757132471092
SPROUT                  
1 39770U 14029E   22240.31231419  .00003328  00000+0  33737-3 0  9997
2 39770  97.9493 357.7536 0007753 201.4031 158.6789 14.91589141448371
UNISAT-6                
1 40012U 14033C   22240.49667147  .00000640  00000+0  10005-3 0  9990
2 40012  97.6633  64.6213 0055929 286.1946  73.3114 14.75042628440603
DUCHIFAT-1              
1 40021U 14033M   22240.45132479  .00001494  00000+0  14845-3 0  9995
2 40021  98.0169 191.9946 0012856 155.9275 204.2548 14.93226378445448
QB50P1                  
1 40025U 14033R   22240.41867972  .00001098  00000+0  11752-3 0  9992
2 40025  97.9618 178.3978 0012143 172.7270 187.4126 14.90744275444489
NUDT-PHONESAT           
1 40900U 15049B   22240.37581619  .00014189  00000+0  36868-3 0  9998
2 40900  97.3987 258.8857 0009681  41.9628  83.7556 15.39011939385668
ZDPS 2A                 
1 40901U 15049C   22240.56109689  .00007598  00000+0  30449-3 0  9998
2 40901  97.4594 249.0642 0013630  93.1683 267.1115 15.25231238384442
ZDPS 2B                 
1 40902U 15049D   22240.47292683  .00005394  00000+0  21548-3 0  9998
2 40902  97.4680 246.7496 0013620  90.7782  65.3943 15.25479059384400
XW-2A                   
1 40903U 15049E   22240.42221184  .00012446  00000+0  17957-3 0  9997
2 40903  97.1733 299.1684 0008562 202.2634 281.6881 15.56080300390449
KAITUO 1A               
1 40904U 15049F   22240.42031454  .00001604  00000+0  81241-4 0  9999
2 40904  97.4965 242.2757 0015339 116.6996  15.4126 15.18359652383780
2015-049G               
1 40905U 15049G   22240.43463175  .00001240  00000+0  66256-4 0  9995
2 40905  97.5164 239.5012 0016417 120.4325  22.2554 15.16860856383527
XW-2C                   
1 40906U 15049H   22240.46062758  .00002370  00000+0  11411-3 0  9998
2 40906  97.4951 243.3329 0015553 106.1568  50.7976 15.19648238383856
XW-2D                   
1 40907U 15049J   22240.37609885  .00002685  00000+0  12620-3 0  9999
2 40907  97.4933 243.2948 0014775 102.3019   5.0995 15.20382879383893
LILACSAT-2              
1 40908U 15049K   22240.45010931  .00001174  00000+0  64241-4 0  9996
2 40908  97.5193 240.3440 0016573 124.0483  33.5520 15.16114797383394
XW-2E                   
1 40909U 15049L   22240.43126076  .00004308  00000+0  17745-3 0  9991
2 40909  97.4654 248.0461 0013712  83.6038  22.4849 15.24560106384370
XW-2F                   
1 40910U 15049M   22240.32194083  .00004364  00000+0  18255-3 0  9993
2 40910  97.4737 247.0889 0014821  85.0473  40.0492 15.24022887384120
XW-2B                   
1 40911U 15049N   22240.47612913  .00002736  00000+0  12894-3 0  9991
2 40911  97.4919 243.9711 0014794 102.9473  24.3305 15.20264435383793
KAITUO 1B               
1 40912U 15049P   22240.43511478  .00005157  00000+0  19521-3 0  9996
2 40912  97.4371 251.5501 0014008  54.6975  51.2575 15.27289888384735
TIANWANG 1A (TW-1A)     
1 40928U 15051D   22240.34924535  .00029731  00000+0  30032-3 0  9992
2 40928  97.0348 262.6320 0009051 112.3491  14.2914 15.65240733389460
LAPAN-A2                
1 40931U 15052B   22240.10317606  .00000655  00000+0  19453-5 0  9996
2 40931   6.0001  17.9459 0012797 103.1951 256.9652 14.76846771373950
E-ST@R-II               
1 41459U 16025D   22240.25548579  .00004117  00000+0  17556-3 0  9991
2 41459  98.1921  50.8262 0141677  25.9629 334.8634 15.14888391348360
AAUSAT 4                
1 41460U 16025E   22240.46521679  .00006439  00000+0  23671-3 0  9992
2 41460  98.1829  57.9501 0120512 358.9014   1.2045 15.21662904348881
